<?xml version="1.0" encoding="UTF-8"?>
<ndm xmlns:xsi="http://www.w3.org/2001/XMLSchema-instance" xsi:noNamespaceSchemaLocation="https://sanaregistry.org/r/ndmxml_unqualified/ndmxml-2.0.0-master-2.0.xsd">
<omm id="CCSDS_OMM_VERS" version="2.0">
<header><CREATION_DATE/><ORIGINATOR/></header><body><segment><metadata><OBJECT_NAME>ORBCOMM FM24</OBJECT_NAME><OBJECT_ID>1998-053D</OBJECT_ID><CENTER_NAME>EARTH</CENTER_NAME><REF_FRAME>TEME</REF_FRAME><TIME_SYSTEM>UTC</TIME_SYSTEM><MEAN_ELEMENT_THEORY>SGP4</MEAN_ELEMENT_THEORY></metadata><data><meanElements><EPOCH>2025-02-25T10:43:30.170208</EPOCH><MEAN_MOTION>14.37607147</MEAN_MOTION><ECCENTRICITY>.0002689</ECCENTRICITY><INCLINATION>45.0071</INCLINATION><RA_OF_ASC_NODE>78.7413</RA_OF_ASC_NODE><ARG_OF_PERICENTER>321.0593</ARG_OF_PERICENTER><MEAN_ANOMALY>39.0062</MEAN_ANOMALY></meanElements><tleParameters><EPHEMERIS_TYPE>0</EPHEMERIS_TYPE><CLASSIFICATION_TYPE>U</CLASSIFICATION_TYPE><NORAD_CAT_ID>25478</NORAD_CAT_ID><ELEMENT_SET_NO>999</ELEMENT_SET_NO><REV_AT_EPOCH>38136</REV_AT_EPOCH><BSTAR>.10466E-2</BSTAR><MEAN_MOTION_DOT>.3029E-4</MEAN_MOTION_DOT><MEAN_MOTION_DDOT>0</MEAN_MOTION_DDOT></tleParameters></data></segment></body></omm>
<omm id="CCSDS_OMM_VERS" version="2.0">
<header><CREATION_DATE/><ORIGINATOR/></header><body><segment><metadata><OBJECT_NAME>ORBCOMM FM25</OBJECT_NAME><OBJECT_ID>1998-053E</OBJECT_ID><CENTER_NAME>EARTH</CENTER_NAME><REF_FRAME>TEME</REF_FRAME><TIME_SYSTEM>UTC</TIME_SYSTEM><MEAN_ELEMENT_THEORY>SGP4</MEAN_ELEMENT_THEORY></metadata><data><meanElements><EPOCH>2025-02-25T18:19:53.714496</EPOCH><MEAN_MOTION>14.37589329</MEAN_MOTION><ECCENTRICITY>.0003507</ECCENTRICITY><INCLINATION>45.0066</INCLINATION><RA_OF_ASC_NODE>75.4973</RA_OF_ASC_NODE><ARG_OF_PERICENTER>7.5401</ARG_OF_PERICENTER><MEAN_ANOMALY>352.5500</MEAN_ANOMALY></meanElements><tleParameters><EPHEMERIS_TYPE>0</EPHEMERIS_TYPE><CLASSIFICATION_TYPE>U</CLASSIFICATION_TYPE><NORAD_CAT_ID>25479</NORAD_CAT_ID><ELEMENT_SET_NO>999</ELEMENT_SET_NO><REV_AT_EPOCH>38170</REV_AT_EPOCH><BSTAR>.10888E-2</BSTAR><MEAN_MOTION_DOT>.3156E-4</MEAN_MOTION_DOT><MEAN_MOTION_DDOT>0</MEAN_MOTION_DDOT></tleParameters></data></segment></body></omm>
<omm id="CCSDS_OMM_VERS" version="2.0">
<header><CREATION_DATE/><ORIGINATOR/></header><body><segment><metadata><OBJECT_NAME>ORBCOMM FM26</OBJECT_NAME><OBJECT_ID>1998-053F</OBJECT_ID><CENTER_NAME>EARTH</CENTER_NAME><REF_FRAME>TEME</REF_FRAME><TIME_SYSTEM>UTC</TIME_SYSTEM><MEAN_ELEMENT_THEORY>SGP4</MEAN_ELEMENT_THEORY></metadata><data><meanElements><EPOCH>2025-02-25T11:54:17.941536</EPOCH><MEAN_MOTION>14.36719817</MEAN_MOTION><ECCENTRICITY>.0004332</ECCENTRICITY><INCLINATION>45.0061</INCLINATION><RA_OF_ASC_NODE>72.4460</RA_OF_ASC_NODE><ARG_OF_PERICENTER>43.6006</ARG_OF_PERICENTER><MEAN_ANOMALY>316.5184</MEAN_ANOMALY></meanElements><tleParameters><EPHEMERIS_TYPE>0</EPHEMERIS_TYPE><CLASSIFICATION_TYPE>U</CLASSIFICATION_TYPE><NORAD_CAT_ID>25480</NORAD_CAT_ID><ELEMENT_SET_NO>999</ELEMENT_SET_NO><REV_AT_EPOCH>38158</REV_AT_EPOCH><BSTAR>.1001E-2</BSTAR><MEAN_MOTION_DOT>.2837E-4</MEAN_MOTION_DOT><MEAN_MOTION_DDOT>0</MEAN_MOTION_DDOT></tleParameters></data></segment></body></omm>
<omm id="CCSDS_OMM_VERS" version="2.0">
<header><CREATION_DATE/><ORIGINATOR/></header><body><segment><metadata><OBJECT_NAME>ORBCOMM FM27</OBJECT_NAME><OBJECT_ID>1998-053G</OBJECT_ID><CENTER_NAME>EARTH</CENTER_NAME><REF_FRAME>TEME</REF_FRAME><TIME_SYSTEM>UTC</TIME_SYSTEM><MEAN_ELEMENT_THEORY>SGP4</MEAN_ELEMENT_THEORY></metadata><data><meanElements><EPOCH>2025-02-25T18:04:32.356992</EPOCH><MEAN_MOTION>14.37597958</MEAN_MOTION><ECCENTRICITY>.0002435</ECCENTRICITY><INCLINATION>45.0046</INCLINATION><RA_OF_ASC_NODE>75.7849</RA_OF_ASC_NODE><ARG_OF_PERICENTER>288.6717</ARG_OF_PERICENTER><MEAN_ANOMALY>71.3866</MEAN_ANOMALY></meanElements><tleParameters><EPHEMERIS_TYPE>0</EPHEMERIS_TYPE><CLASSIFICATION_TYPE>U</CLASSIFICATION_TYPE><NORAD_CAT_ID>25481</NORAD_CAT_ID><ELEMENT_SET_NO>999</ELEMENT_SET_NO><REV_AT_EPOCH>38163</REV_AT_EPOCH><BSTAR>.11296E-2</BSTAR><MEAN_MOTION_DOT>.328E-4</MEAN_MOTION_DOT><MEAN_MOTION_DDOT>0</MEAN_MOTION_DDOT></tleParameters></data></segment></body></omm>
<omm id="CCSDS_OMM_VERS" version="2.0">
<header><CREATION_DATE/><ORIGINATOR/></header><body><segment><metadata><OBJECT_NAME>ORBCOMM FM28</OBJECT_NAME><OBJECT_ID>1998-053H</OBJECT_ID><CENTER_NAME>EARTH</CENTER_NAME><REF_FRAME>TEME</REF_FRAME><TIME_SYSTEM>UTC</TIME_SYSTEM><MEAN_ELEMENT_THEORY>SGP4</MEAN_ELEMENT_THEORY></metadata><data><meanElements><EPOCH>2025-02-25T07:42:25.551648</EPOCH><MEAN_MOTION>14.37849649</MEAN_MOTION><ECCENTRICITY>.0003056</ECCENTRICITY><INCLINATION>45.0063</INCLINATION><RA_OF_ASC_NODE>15.5162</RA_OF_ASC_NODE><ARG_OF_PERICENTER>70.1411</ARG_OF_PERICENTER><MEAN_ANOMALY>289.9766</MEAN_ANOMALY></meanElements><tleParameters><EPHEMERIS_TYPE>0</EPHEMERIS_TYPE><CLASSIFICATION_TYPE>U</CLASSIFICATION_TYPE><NORAD_CAT_ID>25482</NORAD_CAT_ID><ELEMENT_SET_NO>999</ELEMENT_SET_NO><REV_AT_EPOCH>38225</REV_AT_EPOCH><BSTAR>.12482E-2</BSTAR><MEAN_MOTION_DOT>.3658E-4</MEAN_MOTION_DOT><MEAN_MOTION_DDOT>0</MEAN_MOTION_DDOT></tleParameters></data></segment></body></omm>
<omm id="CCSDS_OMM_VERS" version="2.0">
<header><CREATION_DATE/><ORIGINATOR/></header><body><segment><metadata><OBJECT_NAME>ORBCOMM FM30</OBJECT_NAME><OBJECT_ID>1999-065A</OBJECT_ID><CENTER_NAME>EARTH</CENTER_NAME><REF_FRAME>TEME</REF_FRAME><TIME_SYSTEM>UTC</TIME_SYSTEM><MEAN_ELEMENT_THEORY>SGP4</MEAN_ELEMENT_THEORY></metadata><data><meanElements><EPOCH>2025-02-25T20:18:20.300256</EPOCH><MEAN_MOTION>14.36880623</MEAN_MOTION><ECCENTRICITY>.0006779</ECCENTRICITY><INCLINATION>45.0299</INCLINATION><RA_OF_ASC_NODE>256.5919</RA_OF_ASC_NODE><ARG_OF_PERICENTER>167.0622</ARG_OF_PERICENTER><MEAN_ANOMALY>193.0401</MEAN_ANOMALY></meanElements><tleParameters><EPHEMERIS_TYPE>0</EPHEMERIS_TYPE><CLASSIFICATION_TYPE>U</CLASSIFICATION_TYPE><NORAD_CAT_ID>25980</NORAD_CAT_ID><ELEMENT_SET_NO>999</ELEMENT_SET_NO><REV_AT_EPOCH>31843</REV_AT_EPOCH><BSTAR>.92047E-3</BSTAR><MEAN_MOTION_DOT>.2607E-4</MEAN_MOTION_DOT><MEAN_MOTION_DDOT>0</MEAN_MOTION_DDOT></tleParameters></data></segment></body></omm>
<omm id="CCSDS_OMM_VERS" version="2.0">
<header><CREATION_DATE/><ORIGINATOR/></header><body><segment><metadata><OBJECT_NAME>ORBCOMM FM31</OBJECT_NAME><OBJECT_ID>1999-065B</OBJECT_ID><CENTER_NAME>EARTH</CENTER_NAME><REF_FRAME>TEME</REF_FRAME><TIME_SYSTEM>UTC</TIME_SYSTEM><MEAN_ELEMENT_THEORY>SGP4</MEAN_ELEMENT_THEORY></metadata><data><meanElements><EPOCH>2025-02-25T21:14:24.408672</EPOCH><MEAN_MOTION>14.36842068</MEAN_MOTION><ECCENTRICITY>.0004138</ECCENTRICITY><INCLINATION>45.0211</INCLINATION><RA_OF_ASC_NODE>249.9336</RA_OF_ASC_NODE><ARG_OF_PERICENTER>188.8829</ARG_OF_PERICENTER><MEAN_ANOMALY>171.1946</MEAN_ANOMALY></meanElements><tleParameters><EPHEMERIS_TYPE>0</EPHEMERIS_TYPE><CLASSIFICATION_TYPE>U</CLASSIFICATION_TYPE><NORAD_CAT_ID>25981</NORAD_CAT_ID><ELEMENT_SET_NO>999</ELEMENT_SET_NO><REV_AT_EPOCH>31799</REV_AT_EPOCH><BSTAR>.87058E-3</BSTAR><MEAN_MOTION_DOT>.2455E-4</MEAN_MOTION_DOT><MEAN_MOTION_DDOT>0</MEAN_MOTION_DDOT></tleParameters></data></segment></body></omm>
<omm id="CCSDS_OMM_VERS" version="2.0">
<header><CREATION_DATE/><ORIGINATOR/></header><body><segment><metadata><OBJECT_NAME>ORBCOMM FM32</OBJECT_NAME><OBJECT_ID>1999-065C</OBJECT_ID><CENTER_NAME>EARTH</CENTER_NAME><REF_FRAME>TEME</REF_FRAME><TIME_SYSTEM>UTC</TIME_SYSTEM><MEAN_ELEMENT_THEORY>SGP4</MEAN_ELEMENT_THEORY></metadata><data><meanElements><EPOCH>2025-02-25T20:34:14.668608</EPOCH><MEAN_MOTION>14.35885702</MEAN_MOTION><ECCENTRICITY>.0005882</ECCENTRICITY><INCLINATION>45.0144</INCLINATION><RA_OF_ASC_NODE>265.8914</RA_OF_ASC_NODE><ARG_OF_PERICENTER>187.8317</ARG_OF_PERICENTER><MEAN_ANOMALY>172.2439</MEAN_ANOMALY></meanElements><tleParameters><EPHEMERIS_TYPE>0</EPHEMERIS_TYPE><CLASSIFICATION_TYPE>U</CLASSIFICATION_TYPE><NORAD_CAT_ID>25982</NORAD_CAT_ID><ELEMENT_SET_NO>999</ELEMENT_SET_NO><REV_AT_EPOCH>31859</REV_AT_EPOCH><BSTAR>.90414E-3</BSTAR><MEAN_MOTION_DOT>.2505E-4</MEAN_MOTION_DOT><MEAN_MOTION_DDOT>0</MEAN_MOTION_DDOT></tleParameters></data></segment></body></omm>

</ndm>
