ORBCOMM FM24            
1 25478U 98053D   25056.44687697  .00003029  00000+0  10466-2 0  9992
2 25478  45.0071  78.7413 0002689 321.0593  39.0062 14.37607147381364
ORBCOMM FM25            
1 25479U 98053E   25056.76381614  .00003156  00000+0  10888-2 0  9997
2 25479  45.0066  75.4973 0003507   7.5401 352.5500 14.37589329381707
ORBCOMM FM26            
1 25480U 98053F   25056.49604099  .00002837  00000+0  10010-2 0  9996
2 25480  45.0061  72.4460 0004332  43.6006 316.5184 14.36719817381581
ORBCOMM FM27            
1 25481U 98053G   25056.75315228  .00003280  00000+0  11296-2 0  9999
2 25481  45.0046  75.7849 0002435 288.6717  71.3866 14.37597958381634
ORBCOMM FM28            
1 25482U 98053H   25056.32112907  .00003658  00000+0  12482-2 0  9999
2 25482  45.0063  15.5162 0003056  70.1411 289.9766 14.37849649382251
ORBCOMM FM30            
1 25980U 99065A   25056.84606829  .00002607  00000+0  92047-3 0  9993
2 25980  45.0299 256.5919 0006779 167.0622 193.0401 14.36880623318433
ORBCOMM FM31            
1 25981U 99065B   25056.88500473  .00002455  00000+0  87058-3 0  9993
2 25981  45.0211 249.9336 0004138 188.8829 171.1946 14.36842068317996
ORBCOMM FM32            
1 25982U 99065C   25056.85711422  .00002505  00000+0  90414-3 0  9995
2 25982  45.0144 265.8914 0005882 187.8317 172.2439 14.35885702318596
